{"type": "FeatureCollection", "features": [ {"type": "Feature", "properties": {"norad_id": 43058, "name": "GSAT0218 (GALILEO 22)", "group": "galileo", "lat": 49.413182980217655, "lon": -79.25052934043636, "alt_km": 23219.051034211858, "timestamp": "2025-12-26T05:31:12.770713+00:00", "meta": {"OBJECT_NAME": "GSAT0218 (GALILEO 22)", "OBJECT_ID": "2017-079D", "EPOCH": "2025-12-22T00:19:29.615808", "MEAN_MOTION": 1.70473914, "ECCENTRICITY": 0.00024164, "INCLINATION": 55.1256, "RA_OF_ASC_NODE": 226.3779, "ARG_OF_PERICENTER": 315.4078, "MEAN_ANOMALY": 44.6792, "EPHEMERIS_TYPE": 0, "CLASSIFICATION_TYPE": "U", "NORAD_CAT_ID": 43058, "ELEMENT_SET_NO": 999, "REV_AT_EPOCH": 4999, "BSTAR": 0, "MEAN_MOTION_DOT": 7.3e-07, "MEAN_MOTION_DDOT": 0}, "tle": {"line1": "1 43058U 17079D   25356.01353722  .00000073  00000+0  00000+0 0  9996", "line2": "2 43058  55.1256 226.3779 0002416 315.4078  44.6792  1.70473914 49992"}}, "geometry": {"type": "Point", "coordinates": [-79.25052934043636, 49.413182980217655]}}, {"type": "Feature", "properties": {"norad_id": 43564, "name": "GSAT0221 (GALILEO 25)", "group": "galileo", "lat": 41.85485926850065, "lon": 131.19733488460386, "alt_km": 23235.64360950032, "timestamp": "2025-12-26T05:31:12.770724+00:00", "meta": {"OBJECT_NAME": "GSAT0221 (GALILEO 25)", "OBJECT_ID": "2018-060A", "EPOCH": "2025-12-24T06:17:56.044608", "MEAN_MOTION": 1.70475708, "ECCENTRICITY": 0.00067277, "INCLINATION": 57.2252, "RA_OF_ASC_NODE": 346.5066, "ARG_OF_PERICENTER": 286.73, "MEAN_ANOMALY": 73.2039, "EPHEMERIS_TYPE": 0, "CLASSIFICATION_TYPE": "U", "NORAD_CAT_ID": 43564, "ELEMENT_SET_NO": 999, "REV_AT_EPOCH": 4618, "BSTAR": 0, "MEAN_MOTION_DOT": -6.1e-07, "MEAN_MOTION_DDOT": 0}, "tle": {"line1": "1 43564U 18060A   25358.26245422 -.00000061  00000+0  00000+0 0  9993", "line2": "2 43564  57.2252 346.5066 0006727 286.7300  73.2039  1.70475708 46187"}}, "geometry": {"type": "Point", "coordinates": [131.19733488460386, 41.85485926850065]}}, {"type": "Feature", "properties": {"norad_id": 43565, "name": "GSAT0222 (GALILEO 26)", "group": "galileo", "lat": -5.960945952678866, "lon": -17.410488297743427, "alt_km": 23221.793062617875, "timestamp": "2025-12-26T05:31:12.770735+00:00", "meta": {"OBJECT_NAME": "GSAT0222 (GALILEO 26)", "OBJECT_ID": "2018-060B", "EPOCH": "2025-12-22T03:15:04.306464", "MEAN_MOTION": 1.70475514, "ECCENTRICITY": 0.000605, "INCLINATION": 57.229, "RA_OF_ASC_NODE": 346.567, "ARG_OF_PERICENTER": 266.9186, "MEAN_ANOMALY": 93.0201, "EPHEMERIS_TYPE": 0, "CLASSIFICATION_TYPE": "U", "NORAD_CAT_ID": 43565, "ELEMENT_SET_NO": 999, "REV_AT_EPOCH": 4619, "BSTAR": 0, "MEAN_MOTION_DOT": -6.5e-07, "MEAN_MOTION_DDOT": 0}, "tle": {"line1": "1 43565U 18060B   25356.13546651 -.00000065  00000+0  00000+0 0  9990", "line2": "2 43565  57.2290 346.5670 0006050 266.9186  93.0201  1.70475514 46199"}}, "geometry": {"type": "Point", "coordinates": [-17.410488297743427, -5.960945952678866]}}, {"type": "Feature", "properties": {"norad_id": 43566, "name": "GSAT0219 (GALILEO 23)", "group": "galileo", "lat": -30.479376848618013, "lon": -171.27431191384815, "alt_km": 23221.101153461987, "timestamp": "2025-12-26T05:31:12.770746+00:00", "meta": {"OBJECT_NAME": "GSAT0219 (GALILEO 23)", "OBJECT_ID": "2018-060C", "EPOCH": "2025-12-22T08:33:30.157056", "MEAN_MOTION": 1.70475755, "ECCENTRICITY": 0.00058833, "INCLINATION": 57.2283, "RA_OF_ASC_NODE": 346.5626, "ARG_OF_PERICENTER": 291.1394, "MEAN_ANOMALY": 68.8055, "EPHEMERIS_TYPE": 0, "CLASSIFICATION_TYPE": "U", "NORAD_CAT_ID": 43566, "ELEMENT_SET_NO": 999, "REV_AT_EPOCH": 4617, "BSTAR": 0, "MEAN_MOTION_DOT": -6.5e-07, "MEAN_MOTION_DDOT": 0}, "tle": {"line1": "1 43566U 18060C   25356.35659904 -.00000065  00000+0  00000+0 0  9991", "line2": "2 43566  57.2283 346.5626 0005883 291.1394  68.8055  1.70475755 46179"}}, "geometry": {"type": "Point", "coordinates": [-171.27431191384815, -30.479376848618013]}}, {"type": "Feature", "properties": {"norad_id": 43567, "name": "GSAT0220 (GALILEO 24)", "group": "galileo", "lat": 56.269518197662, "lon": 61.182831910377125, "alt_km": 23231.766950671146, "timestamp": "2025-12-26T05:31:12.770756+00:00", "meta": {"OBJECT_NAME": "GSAT0220 (GALILEO 24)", "OBJECT_ID": "2018-060D", "EPOCH": "2025-12-23T03:56:18.956256", "MEAN_MOTION": 1.70475727, "ECCENTRICITY": 0.00061193, "INCLINATION": 57.2279, "RA_OF_ASC_NODE": 346.5416, "ARG_OF_PERICENTER": 288.3355, "MEAN_ANOMALY": 71.6054, "EPHEMERIS_TYPE": 0, "CLASSIFICATION_TYPE": "U", "NORAD_CAT_ID": 43567, "ELEMENT_SET_NO": 999, "REV_AT_EPOCH": 4617, "BSTAR": 0, "MEAN_MOTION_DOT": -6.3e-07, "MEAN_MOTION_DDOT": 0}, "tle": {"line1": "1 43567U 18060D   25357.16410829 -.00000063  00000+0  00000+0 0  9991", "line2": "2 43567  57.2279 346.5416 0006119 288.3355  71.6054  1.70475727 46170"}}, "geometry": {"type": "Point", "coordinates": [61.182831910377125, 56.269518197662]}}, {"type": "Feature", "properties": {"norad_id": 49809, "name": "GSAT0223 (GALILEO 27)", "group": "galileo", "lat": 6.469458806915381, "lon": 162.14809440936097, "alt_km": 23219.987213057513, "timestamp": "2025-12-26T05:31:12.770767+00:00", "meta": {"OBJECT_NAME": "GSAT0223 (GALILEO 27)", "OBJECT_ID": "2021-116A", "EPOCH": "2025-12-22T17:26:14.878176", "MEAN_MOTION": 1.70475871, "ECCENTRICITY": 0.000441, "INCLINATION": 57.2174, "RA_OF_ASC_NODE": 346.4438, "ARG_OF_PERICENTER": 255.815, "MEAN_ANOMALY": 286.3499, "EPHEMERIS_TYPE": 0, "CLASSIFICATION_TYPE": "U", "NORAD_CAT_ID": 49809, "ELEMENT_SET_NO": 999, "REV_AT_EPOCH": 2517, "BSTAR": 0, "MEAN_MOTION_DOT": -6.4e-07, "MEAN_MOTION_DDOT": 0}, "tle": {"line1": "1 49809U 21116A   25356.72656109 -.00000064  00000+0  00000+0 0  9997", "line2": "2 49809  57.2174 346.4438 0004410 255.8150 286.3499  1.70475871 25171"}}, "geometry": {"type": "Point", "coordinates": [162.14809440936097, 6.469458806915381]}}, {"type": "Feature", "properties": {"norad_id": 49810, "name": "GSAT0224 (GALILEO 28)", "group": "galileo", "lat": -54.31390198393659, "lon": -77.45447412995557, "alt_km": 23217.703398568225, "timestamp": "2025-12-26T05:31:12.770778+00:00", "meta": {"OBJECT_NAME": "GSAT0224 (GALILEO 28)", "OBJECT_ID": "2021-116B", "EPOCH": "2025-12-23T03:00:59.528736", "MEAN_MOTION": 1.70475912, "ECCENTRICITY": 0.00037519, "INCLINATION": 57.2181, "RA_OF_ASC_NODE": 346.4317, "ARG_OF_PERICENTER": 260.8078, "MEAN_ANOMALY": 278.9053, "EPHEMERIS_TYPE": 0, "CLASSIFICATION_TYPE": "U", "NORAD_CAT_ID": 49810, "ELEMENT_SET_NO": 999, "REV_AT_EPOCH": 2520, "BSTAR": 0, "MEAN_MOTION_DOT": -6.3e-07, "MEAN_MOTION_DDOT": 0}, "tle": {"line1": "1 49810U 21116B   25357.12568899 -.00000063  00000+0  00000+0 0  9991", "line2": "2 49810  57.2181 346.4317 0003751 260.8078 278.9053  1.70475912 25202"}}, "geometry": {"type": "Point", "coordinates": [-77.45447412995557, -54.31390198393659]}}, {"type": "Feature", "properties": {"norad_id": 59598, "name": "GSAT0225 (GALILEO 29)", "group": "galileo", "lat": -54.33491919312442, "lon": 28.841330242587613, "alt_km": 23227.503268851196, "timestamp": "2025-12-26T05:31:12.770789+00:00", "meta": {"OBJECT_NAME": "GSAT0225 (GALILEO 29)", "OBJECT_ID": "2024-079A", "EPOCH": "2025-12-25T18:42:53.226144", "MEAN_MOTION": 1.70474814, "ECCENTRICITY": 0.00021774, "INCLINATION": 55.0084, "RA_OF_ASC_NODE": 105.9312, "ARG_OF_PERICENTER": 191.4017, "MEAN_ANOMALY": 169.7242, "EPHEMERIS_TYPE": 0, "CLASSIFICATION_TYPE": "U", "NORAD_CAT_ID": 59598, "ELEMENT_SET_NO": 999, "REV_AT_EPOCH": 1036, "BSTAR": 0, "MEAN_MOTION_DOT": 1.7e-07, "MEAN_MOTION_DDOT": 0}, "tle": {"line1": "1 59598U 24079A   25359.77978271  .00000017  00000+0  00000+0 0  9996", "line2": "2 59598  55.0084 105.9312 0002177 191.4017 169.7242  1.70474814 10368"}}, "geometry": {"type": "Point", "coordinates": [28.841330242587613, -54.33491919312442]}}, {"type": "Feature", "properties": {"norad_id": 59600, "name": "GSAT0227 (GALILEO 30)", "group": "galileo", "lat": 12.266809194063269, "lon": -82.83232038444311, "alt_km": 23215.057765131674, "timestamp": "2025-12-26T05:31:12.770801+00:00", "meta": {"OBJECT_NAME": "GSAT0227 (GALILEO 30)", "OBJECT_ID": "2024-079C", "EPOCH": "2025-12-21T20:31:35.455872", "MEAN_MOTION": 1.70474868, "ECCENTRICITY": 0.00028355, "INCLINATION": 55.0019, "RA_OF_ASC_NODE": 106.0394, "ARG_OF_PERICENTER": 117.3615, "MEAN_ANOMALY": 242.6419, "EPHEMERIS_TYPE": 0, "CLASSIFICATION_TYPE": "U", "NORAD_CAT_ID": 59600, "ELEMENT_SET_NO": 999, "REV_AT_EPOCH": 1034, "BSTAR": 0, "MEAN_MOTION_DOT": 4e-08, "MEAN_MOTION_DDOT": 0}, "tle": {"line1": "1 59600U 24079C   25355.85527148  .00000004  00000+0  00000+0 0  9994", "line2": "2 59600  55.0019 106.0394 0002835 117.3615 242.6419  1.70474868 10348"}}, "geometry": {"type": "Point", "coordinates": [-82.83232038444311, 12.266809194063269]}}, {"type": "Feature", "properties": {"norad_id": 61182, "name": "GSAT0232 (GALILEO 32)", "group": "galileo", "lat": -0.5796288126162197, "lon": -134.32816813404355, "alt_km": 23227.73385630723, "timestamp": "2025-12-26T05:31:12.770812+00:00", "meta": {"OBJECT_NAME": "GSAT0232 (GALILEO 32)", "OBJECT_ID": "2024-167A", "EPOCH": "2025-12-24T18:25:47.943264", "MEAN_MOTION": 1.70473505, "ECCENTRICITY": 0.0001887, "INCLINATION": 55.2374, "RA_OF_ASC_NODE": 226.1008, "ARG_OF_PERICENTER": 202.1814, "MEAN_ANOMALY": 339.8736, "EPHEMERIS_TYPE": 0, "CLASSIFICATION_TYPE": "U", "NORAD_CAT_ID": 61182, "ELEMENT_SET_NO": 999, "REV_AT_EPOCH": 790, "BSTAR": 0, "MEAN_MOTION_DOT": 7.1e-07, "MEAN_MOTION_DDOT": 0}, "tle": {"line1": "1 61182U 24167A   25358.76791601  .00000071  00000+0  00000+0 0  9994", "line2": "2 61182  55.2374 226.1008 0001887 202.1814 339.8736  1.70473505  7904"}}, "geometry": {"type": "Point", "coordinates": [-134.32816813404355, -0.5796288126162197]}}]}